HIMAWARI-8              
1 40267U 14060A   23274.56779096 -.00000286  00000+0  00000+0 0  9992
2 40267   0.0127 136.0916 0001029  86.3734 132.6453  1.00270488 32830
